GLOBALSTAR M024         
1 25883U 99043A   24152.45424413 -.00000113  00000+0 -17071-2 0  9996
2 25883  51.9972 161.9381 0001580 211.8128 319.5286 11.10157533 72467
GLOBALSTAR M027         
1 25884U 99043B   24152.44262084 -.00000066  00000+0 -90819-4 0  9990
2 25884  52.0201 229.1330 0021481  96.1202 264.2039 11.04368546 99063
GLOBALSTAR M054         
1 25885U 99043C   24153.16837281 -.00000075  00000+0 -10831-3 0  9993
2 25885  52.0159  58.7528 0004237 249.8511 259.2119 11.39203419 75951
GLOBALSTAR M053         
1 25886U 99043D   24152.83261097 -.00000052  00000+0  47521-3 0  9993
2 25886  52.0007 345.4972 0003946 144.1872 315.0141 11.27655482 76423
GLOBALSTAR M058         
1 25907U 99049A   24153.06656369 -.00000036  00000+0  64990-3 0  9990
2 25907  51.9962  46.8488 0001804 275.4784  84.5845 11.93180650107258
GLOBALSTAR M050         
1 25908U 99049B   24152.19739882 -.00000143  00000+0 -62020-3 0  9998
2 25908  51.9995  85.3827 0009520 352.8254 154.8441 12.07434488102047
GLOBALSTAR M033         
1 25909U 99049C   24152.81367390 -.00000093  00000+0 -97834-5 0  9996
2 25909  51.9935 341.8692 0011836 199.7228 160.3163 12.20273649489185
GLOBALSTAR M055         
1 25910U 99049D   24153.03515159 -.00000065  00000+0  25053-3 0  9991
2 25910  52.0043  10.5414 0007848  62.5614 297.6035 12.29402165121625
